[{"OBJECT_NAME":"ONEWEB-0593","OBJECT_ID":"2022-166T","EPOCH":"2025-07-27T19:47:52.873728","MEAN_MOTION":13.21825445,"ECCENTRICITY":0.0002018,"INCLINATION":87.9272,"RA_OF_ASC_NODE":308.6935,"ARG_OF_PERICENTER":105.8321,"MEAN_ANOMALY":254.3035,"EPHEMERIS_TYPE":0,"CLASSIFICATION_TYPE":"U","NORAD_CAT_ID":54659,"ELEMENT_SET_NO":999,"REV_AT_EPOCH":12869,"BSTAR":6.106e-5,"MEAN_MOTION_DOT":3.8e-7,"MEAN_MOTION_DDOT":0},{"OBJECT_NAME":"ONEWEB-0594","OBJECT_ID":"2022-166U","EPOCH":"2025-07-27T20:15:07.677504","MEAN_MOTION":13.21825065,"ECCENTRICITY":0.0002035,"INCLINATION":87.9276,"RA_OF_ASC_NODE":308.7048,"ARG_OF_PERICENTER":98.7524,"MEAN_ANOMALY":261.384,"EPHEMERIS_TYPE":0,"CLASSIFICATION_TYPE":"U","NORAD_CAT_ID":54660,"ELEMENT_SET_NO":999,"REV_AT_EPOCH":12871,"BSTAR":8.5102e-5,"MEAN_MOTION_DOT":4.8e-7,"MEAN_MOTION_DDOT":0},{"OBJECT_NAME":"ONEWEB-0595","OBJECT_ID":"2022-166V","EPOCH":"2025-07-27T19:43:20.064864","MEAN_MOTION":13.21825676,"ECCENTRICITY":0.000187,"INCLINATION":87.9272,"RA_OF_ASC_NODE":308.6856,"ARG_OF_PERICENTER":95.4149,"MEAN_ANOMALY":264.7198,"EPHEMERIS_TYPE":0,"CLASSIFICATION_TYPE":"U","NORAD_CAT_ID":54661,"ELEMENT_SET_NO":999,"REV_AT_EPOCH":12868,"BSTAR":-7.1429e-5,"MEAN_MOTION_DOT":-1.6e-7,"MEAN_MOTION_DDOT":0},{"OBJECT_NAME":"ONEWEB-0596","OBJECT_ID":"2022-166W","EPOCH":"2025-07-27T19:04:43.543488","MEAN_MOTION":13.21825621,"ECCENTRICITY":0.0001888,"INCLINATION":87.9277,"RA_OF_ASC_NODE":308.7053,"ARG_OF_PERICENTER":100.1678,"MEAN_ANOMALY":259.9668,"EPHEMERIS_TYPE":0,"CLASSIFICATION_TYPE":"U","NORAD_CAT_ID":54662,"ELEMENT_SET_NO":999,"REV_AT_EPOCH":12868,"BSTAR":4.6311e-5,"MEAN_MOTION_DOT":3.2e-7,"MEAN_MOTION_DDOT":0},{"OBJECT_NAME":"ONEWEB-0597","OBJECT_ID":"2022-166X","EPOCH":"2025-07-27T18:37:28.438176","MEAN_MOTION":13.21825402,"ECCENTRICITY":0.0002079,"INCLINATION":87.9276,"RA_OF_ASC_NODE":308.7125,"ARG_OF_PERICENTER":104.1171,"MEAN_ANOMALY":256.0194,"EPHEMERIS_TYPE":0,"CLASSIFICATION_TYPE":"U","NORAD_CAT_ID":54663,"ELEMENT_SET_NO":999,"REV_AT_EPOCH":12868,"BSTAR":0.00018484,"MEAN_MOTION_DOT":8.9e-7,"MEAN_MOTION_DDOT":0},{"OBJECT_NAME":"ONEWEB-0600","OBJECT_ID":"2022-166Y","EPOCH":"2025-07-27T20:01:30.660960","MEAN_MOTION":13.21825193,"ECCENTRICITY":0.0002131,"INCLINATION":87.9267,"RA_OF_ASC_NODE":308.6977,"ARG_OF_PERICENTER":101.8803,"MEAN_ANOMALY":258.257,"EPHEMERIS_TYPE":0,"CLASSIFICATION_TYPE":"U","NORAD_CAT_ID":54664,"ELEMENT_SET_NO":999,"REV_AT_EPOCH":12866,"BSTAR":-1.3082e-5,"MEAN_MOTION_DOT":8.0e-8,"MEAN_MOTION_DDOT":0},{"OBJECT_NAME":"ONEWEB-0601","OBJECT_ID":"2022-166Z","EPOCH":"2025-07-27T19:50:08.747232","MEAN_MOTION":13.21826201,"ECCENTRICITY":0.0002051,"INCLINATION":87.9276,"RA_OF_ASC_NODE":308.7132,"ARG_OF_PERICENTER":110.7883,"MEAN_ANOMALY":249.347,"EPHEMERIS_TYPE":0,"CLASSIFICATION_TYPE":"U","NORAD_CAT_ID":54665,"ELEMENT_SET_NO":999,"REV_AT_EPOCH":12885,"BSTAR":6.377e-6,"MEAN_MOTION_DOT":1.6e-7,"MEAN_MOTION_DDOT":0},{"OBJECT_NAME":"ONEWEB-0602","OBJECT_ID":"2022-166AA","EPOCH":"2025-07-27T19:00:10.947168","MEAN_MOTION":13.21825923,"ECCENTRICITY":0.0002182,"INCLINATION":87.928,"RA_OF_ASC_NODE":308.7208,"ARG_OF_PERICENTER":104.2459,"MEAN_ANOMALY":255.8918,"EPHEMERIS_TYPE":0,"CLASSIFICATION_TYPE":"U","NORAD_CAT_ID":54666,"ELEMENT_SET_NO":999,"REV_AT_EPOCH":12869,"BSTAR":2.9886e-5,"MEAN_MOTION_DOT":2.5e-7,"MEAN_MOTION_DDOT":0},{"OBJECT_NAME":"ONEWEB-0603","OBJECT_ID":"2022-166AB","EPOCH":"2025-07-27T17:18:00.147456","MEAN_MOTION":13.21827123,"ECCENTRICITY":0.0002089,"INCLINATION":87.9267,"RA_OF_ASC_NODE":308.672,"ARG_OF_PERICENTER":107.2336,"MEAN_ANOMALY":252.9027,"EPHEMERIS_TYPE":0,"CLASSIFICATION_TYPE":"U","NORAD_CAT_ID":54667,"ELEMENT_SET_NO":999,"REV_AT_EPOCH":12861,"BSTAR":-2.0223e-5,"MEAN_MOTION_DOT":5.0e-8,"MEAN_MOTION_DDOT":0},{"OBJECT_NAME":"ONEWEB-0604","OBJECT_ID":"2022-166AC","EPOCH":"2025-07-27T18:48:50.910048","MEAN_MOTION":13.21825487,"ECCENTRICITY":0.0002162,"INCLINATION":87.9277,"RA_OF_ASC_NODE":308.6814,"ARG_OF_PERICENTER":104.4665,"MEAN_ANOMALY":255.6709,"EPHEMERIS_TYPE":0,"CLASSIFICATION_TYPE":"U","NORAD_CAT_ID":54668,"ELEMENT_SET_NO":999,"REV_AT_EPOCH":12858,"BSTAR":-6.7513e-5,"MEAN_MOTION_DOT":-1.5e-7,"MEAN_MOTION_DDOT":0},{"OBJECT_NAME":"ONEWEB-0605","OBJECT_ID":"2022-166AD","EPOCH":"2025-07-27T18:39:44.851680","MEAN_MOTION":13.21825542,"ECCENTRICITY":0.0001852,"INCLINATION":87.9275,"RA_OF_ASC_NODE":308.7137,"ARG_OF_PERICENTER":120.9666,"MEAN_ANOMALY":239.165,"EPHEMERIS_TYPE":0,"CLASSIFICATION_TYPE":"U","NORAD_CAT_ID":54669,"ELEMENT_SET_NO":999,"REV_AT_EPOCH":12865,"BSTAR":4.4416e-5,"MEAN_MOTION_DOT":3.1e-7,"MEAN_MOTION_DDOT":0},{"OBJECT_NAME":"ONEWEB-0606","OBJECT_ID":"2022-166AE","EPOCH":"2025-07-27T17:22:33.019392","MEAN_MOTION":13.21825788,"ECCENTRICITY":0.000191,"INCLINATION":87.9273,"RA_OF_ASC_NODE":308.7353,"ARG_OF_PERICENTER":95.6578,"MEAN_ANOMALY":264.4773,"EPHEMERIS_TYPE":0,"CLASSIFICATION_TYPE":"U","NORAD_CAT_ID":54670,"ELEMENT_SET_NO":999,"REV_AT_EPOCH":12870,"BSTAR":1.6993e-5,"MEAN_MOTION_DOT":2.0e-7,"MEAN_MOTION_DDOT":0},{"OBJECT_NAME":"ONEWEB-0607","OBJECT_ID":"2022-166AF","EPOCH":"2025-07-27T20:12:52.065792","MEAN_MOTION":13.21823685,"ECCENTRICITY":0.0002055,"INCLINATION":87.9273,"RA_OF_ASC_NODE":308.6762,"ARG_OF_PERICENTER":104.5311,"MEAN_ANOMALY":255.6051,"EPHEMERIS_TYPE":0,"CLASSIFICATION_TYPE":"U","NORAD_CAT_ID":54671,"ELEMENT_SET_NO":999,"REV_AT_EPOCH":12869,"BSTAR":3.7026e-5,"MEAN_MOTION_DOT":2.8e-7,"MEAN_MOTION_DDOT":0},{"OBJECT_NAME":"ONEWEB-0608","OBJECT_ID":"2022-166AG","EPOCH":"2025-07-27T18:32:56.070816","MEAN_MOTION":13.2182702,"ECCENTRICITY":0.0002141,"INCLINATION":87.9267,"RA_OF_ASC_NODE":308.6767,"ARG_OF_PERICENTER":115.3849,"MEAN_ANOMALY":244.7506,"EPHEMERIS_TYPE":0,"CLASSIFICATION_TYPE":"U","NORAD_CAT_ID":54672,"ELEMENT_SET_NO":999,"REV_AT_EPOCH":12869,"BSTAR":0.00010927,"MEAN_MOTION_DOT":5.8e-7,"MEAN_MOTION_DDOT":0},{"OBJECT_NAME":"ONEWEB-0610","OBJECT_ID":"2022-166AH","EPOCH":"2025-07-27T18:05:41.426880","MEAN_MOTION":13.21831355,"ECCENTRICITY":0.0002161,"INCLINATION":87.9275,"RA_OF_ASC_NODE":308.7141,"ARG_OF_PERICENTER":116.4605,"MEAN_ANOMALY":243.6751,"EPHEMERIS_TYPE":0,"CLASSIFICATION_TYPE":"U","NORAD_CAT_ID":54673,"ELEMENT_SET_NO":999,"REV_AT_EPOCH":12859,"BSTAR":-2.6278e-6,"MEAN_MOTION_DOT":1.2e-7,"MEAN_MOTION_DDOT":0},{"OBJECT_NAME":"ONEWEB-0611","OBJECT_ID":"2022-166AJ","EPOCH":"2025-07-27T19:45:36.241632","MEAN_MOTION":13.21825979,"ECCENTRICITY":0.0002011,"INCLINATION":87.9272,"RA_OF_ASC_NODE":308.697,"ARG_OF_PERICENTER":93.5807,"MEAN_ANOMALY":266.5557,"EPHEMERIS_TYPE":0,"CLASSIFICATION_TYPE":"U","NORAD_CAT_ID":54674,"ELEMENT_SET_NO":999,"REV_AT_EPOCH":12859,"BSTAR":8.0922e-5,"MEAN_MOTION_DOT":4.6e-7,"MEAN_MOTION_DDOT":0},{"OBJECT_NAME":"ONEWEB-0612","OBJECT_ID":"2022-166AK","EPOCH":"2025-07-27T20:03:46.546560","MEAN_MOTION":13.21824747,"ECCENTRICITY":0.0002025,"INCLINATION":87.9274,"RA_OF_ASC_NODE":308.6719,"ARG_OF_PERICENTER":106.1742,"MEAN_ANOMALY":253.9615,"EPHEMERIS_TYPE":0,"CLASSIFICATION_TYPE":"U","NORAD_CAT_ID":54675,"ELEMENT_SET_NO":999,"REV_AT_EPOCH":12858,"BSTAR":0.00012134,"MEAN_MOTION_DOT":6.3e-7,"MEAN_MOTION_DDOT":0}]
