ONEWEB-0593             
1 54659U 22166T   25208.82491752  .00000038  00000+0  61060-4 0  9998
2 54659  87.9272 308.6935 0002018 105.8321 254.3035 13.21825445128694
ONEWEB-0594             
1 54660U 22166U   25208.84383886  .00000048  00000+0  85102-4 0  9994
2 54660  87.9276 308.7048 0002035  98.7524 261.3840 13.21825065128713
ONEWEB-0595             
1 54661U 22166V   25208.82176001 -.00000016  00000+0 -71429-4 0  9996
2 54661  87.9272 308.6856 0001870  95.4149 264.7198 13.21825676128686
ONEWEB-0596             
1 54662U 22166W   25208.79494842  .00000032  00000+0  46311-4 0  9997
2 54662  87.9277 308.7053 0001888 100.1678 259.9668 13.21825621128680
ONEWEB-0597             
1 54663U 22166X   25208.77602359  .00000089  00000+0  18484-3 0  9991
2 54663  87.9276 308.7125 0002079 104.1171 256.0194 13.21825402128684
ONEWEB-0600             
1 54664U 22166Y   25208.83438265  .00000008  00000+0 -13082-4 0  9994
2 54664  87.9267 308.6977 0002131 101.8803 258.2570 13.21825193128661
ONEWEB-0601             
1 54665U 22166Z   25208.82649013  .00000016  00000+0  63770-5 0  9997
2 54665  87.9276 308.7132 0002051 110.7883 249.3470 13.21826201128856
ONEWEB-0602             
1 54666U 22166AA  25208.79179337  .00000025  00000+0  29886-4 0  9990
2 54666  87.9280 308.7208 0002182 104.2459 255.8918 13.21825923128699
ONEWEB-0603             
1 54667U 22166AB  25208.72083504  .00000005  00000+0 -20223-4 0  9999
2 54667  87.9267 308.6720 0002089 107.2336 252.9027 13.21827123128611
ONEWEB-0604             
1 54668U 22166AC  25208.78392257 -.00000015  00000+0 -67513-4 0  9999
2 54668  87.9277 308.6814 0002162 104.4665 255.6709 13.21825487128587
ONEWEB-0605             
1 54669U 22166AD  25208.77760245  .00000031  00000+0  44416-4 0  9998
2 54669  87.9275 308.7137 0001852 120.9666 239.1650 13.21825542128656
ONEWEB-0606             
1 54670U 22166AE  25208.72399328  .00000020  00000+0  16993-4 0  9992
2 54670  87.9273 308.7353 0001910  95.6578 264.4773 13.21825788128706
ONEWEB-0607             
1 54671U 22166AF  25208.84226928  .00000028  00000+0  37026-4 0  9999
2 54671  87.9273 308.6762 0002055 104.5311 255.6051 13.21823685128699
ONEWEB-0608             
1 54672U 22166AG  25208.77287119  .00000058  00000+0  10927-3 0  9994
2 54672  87.9267 308.6767 0002141 115.3849 244.7506 13.21827020128691
ONEWEB-0610             
1 54673U 22166AH  25208.75395170  .00000012  00000+0 -26278-5 0  9999
2 54673  87.9275 308.7141 0002161 116.4605 243.6751 13.21831355128597
ONEWEB-0611             
1 54674U 22166AJ  25208.82333613  .00000046  00000+0  80922-4 0  9993
2 54674  87.9272 308.6970 0002011  93.5807 266.5557 13.21825979128590
ONEWEB-0612             
1 54675U 22166AK  25208.83595540  .00000063  00000+0  12134-3 0  9992
2 54675  87.9274 308.6719 0002025 106.1742 253.9615 13.21824747128584
